{
"type": "FeatureCollection",
"name": "output",
"crs": { "type": "name", "properties": { "name": "urn:ogc:def:crs:OGC:1.3:CRS84" } },
"features": [
{ "type": "Feature", "properties": { "name": "NL01" }, "geometry": { "type": "Polygon", "coordinates": [ [ [ 7.292627245684467, 53.320297420389124 ], [ 6.974712554914047, 53.215755874453485 ], [ 6.952685098483991, 53.226996814653461 ], [ 6.819781295122076, 53.230628809921008 ], [ 6.747134627900079, 53.233349942886719 ], [ 6.63905652126045, 53.188955949593016 ], [ 6.695046653725699, 53.121116369161655 ], [ 6.634747550852385, 53.106141990748547 ], [ 6.558434231929874, 53.097482284247036 ], [ 6.53024323222316, 53.122711508045711 ], [ 6.445230921200051, 53.108372381340189 ], [ 6.362524506536314, 53.033912891979803 ], [ 6.367790032169771, 53.067318991502894 ], [ 6.305179409879375, 53.08109340303114 ], [ 6.315109131222305, 53.094028744328476 ], [ 6.290942652917777, 53.099801860835683 ], [ 6.261702254190511, 53.114388795976531 ], [ 6.205049518991385, 53.115418782600621 ], [ 6.175394786994944, 53.135154115215137 ], [ 6.17709961735384, 53.166873554548133 ], [ 6.18170677025947, 53.171226877751074 ], [ 6.199529987597726, 53.198258325436093 ], [ 6.211494737745763, 53.201086034275839 ], [ 6.226776585283546, 53.215982211567635 ], [ 6.230171367147093, 53.222398277849685 ], [ 6.215563453219748, 53.236956369423844 ], [ 6.224043675748509, 53.238925090664097 ], [ 6.217980650616615, 53.241901251290258 ], [ 6.219973274030804, 53.243063120904331 ], [ 6.229030940055114, 53.244835942971491 ], [ 6.231055332122422, 53.24507210775014 ], [ 6.231956093727037, 53.247175306032766 ], [ 6.229848125846175, 53.248378277869001 ], [ 6.229643555002194, 53.250094793895258 ], [ 6.233362888525616, 53.250566700082473 ], [ 6.235117031821185, 53.25340865673089 ], [ 6.231770815303919, 53.255418897802848 ], [ 6.232216049929882, 53.256738197248403 ], [ 6.237217982729875, 53.257262576246085 ], [ 6.238908482952486, 53.25949319607664 ], [ 6.237997143313612, 53.262031633059657 ], [ 6.247330515872203, 53.268540072698016 ], [ 6.249620927796937, 53.267275608599249 ], [ 6.253519743107667, 53.267754885714218 ], [ 6.255395266519979, 53.268886774095378 ], [ 6.255559039691357, 53.270994139065742 ], [ 6.251366866605019, 53.277479589384612 ], [ 6.253293447039126, 53.287960558868313 ], [ 6.259685611249494, 53.291186715412678 ], [ 6.269063337199255, 53.290523199606376 ], [ 6.27442203774425, 53.296555476033504 ], [ 6.274345484869558, 53.298896471459123 ], [ 6.279295903485948, 53.303280726668667 ], [ 6.289605022619246, 53.30504955097846 ], [ 6.294402335484916, 53.308106699447009 ], [ 6.280456955266483, 53.312550991208397 ], [ 6.286869494801398, 53.340992699213714 ], [ 6.178839149728187, 53.364485547123003 ], [ 6.168288696177927, 53.390282988240436 ], [ 6.191189525645351, 53.41099583404889 ], [ 6.350263880501254, 53.44609027401485 ], [ 6.413325100034752, 53.515489441922021 ], [ 6.345925968044785, 53.60887727549045 ], [ 7.292627245684467, 53.320297420389124 ] ] ] } },
{ "type": "Feature", "properties": { "name": "NL02" }, "geometry": { "type": "Polygon", "coordinates": [ [ [ 5.777156143378812, 52.607484963374603 ], [ 5.886166977286056, 52.621040360014412 ], [ 5.837989938524318, 52.676126012202921 ], [ 5.818621972969145, 52.787621379354199 ], [ 5.795155249555565, 52.806477976357705 ], [ 5.819682621944138, 52.817174174333978 ], [ 5.843504929249705, 52.805279810209854 ], [ 5.855992424620825, 52.806457200290936 ], [ 5.87859889638939, 52.80084114872232 ], [ 5.924360523347872, 52.823660524731594 ], [ 5.922888544132081, 52.829597640512809 ], [ 5.972160186185784, 52.842359794415707 ], [ 5.986482491730571, 52.821693418341383 ], [ 5.988902222098797, 52.822064534141809 ], [ 5.99654820456937, 52.816575485714353 ], [ 6.01105152373436, 52.820735424505862 ], [ 6.024560306537124, 52.822549854262306 ], [ 6.031163313833312, 52.81500139113767 ], [ 6.05993976619559, 52.826137948397069 ], [ 6.055106915930971, 52.831065537826873 ], [ 6.052621403402813, 52.83732794744094 ], [ 6.085576104608448, 52.841869021683657 ], [ 6.11983847285594, 52.85422334337958 ], [ 6.165051564180415, 52.87456741424176 ], [ 6.206928366027044, 52.890709261454944 ], [ 6.232344035561224, 52.913493618064813 ], [ 6.244935369103297, 52.919670896320653 ], [ 6.24752786871536, 52.923578486109022 ], [ 6.256632852266288, 52.927626942186897 ], [ 6.303009168821228, 52.924957580700664 ], [ 6.333455283001856, 52.906395213879797 ], [ 6.393396049996315, 52.932780653156492 ], [ 6.42753790684231, 52.971793040494568 ], [ 6.362524506536314, 53.033912891979803 ], [ 6.367790032169771, 53.067318991502894 ], [ 6.305179409879375, 53.08109340303114 ], [ 6.315109131222305, 53.094028744328476 ], [ 6.290942652917777, 53.099801860835683 ], [ 6.261702254190511, 53.114388795976531 ], [ 6.205049518991385, 53.115418782600621 ], [ 6.175394786994944, 53.135154115215137 ], [ 6.17709961735384, 53.166873554548133 ], [ 6.18170677025947, 53.171226877751074 ], [ 6.199529987597726, 53.198258325436093 ], [ 6.211494737745763, 53.201086034275839 ], [ 6.226776585283546, 53.215982211567635 ], [ 6.230171367147093, 53.222398277849685 ], [ 6.215563453219748, 53.236956369423844 ], [ 6.224043675748509, 53.238925090664097 ], [ 6.217980650616615, 53.241901251290258 ], [ 6.219973274030804, 53.243063120904331 ], [ 6.229030940055114, 53.244835942971491 ], [ 6.231055332122422, 53.24507210775014 ], [ 6.231956093727037, 53.247175306032766 ], [ 6.229848125846175, 53.248378277869001 ], [ 6.229643555002194, 53.250094793895258 ], [ 6.233362888525616, 53.250566700082473 ], [ 6.235117031821185, 53.25340865673089 ], [ 6.231770815303919, 53.255418897802848 ], [ 6.232216049929882, 53.256738197248403 ], [ 6.237217982729875, 53.257262576246085 ], [ 6.238908482952486, 53.25949319607664 ], [ 6.237997143313612, 53.262031633059657 ], [ 6.247330515872203, 53.268540072698016 ], [ 6.249620927796937, 53.267275608599249 ], [ 6.253519743107667, 53.267754885714218 ], [ 6.255395266519979, 53.268886774095378 ], [ 6.255559039691357, 53.270994139065742 ], [ 6.251366866605019, 53.277479589384612 ], [ 6.253293447039126, 53.287960558868313 ], [ 6.259685611249494, 53.291186715412678 ], [ 6.269063337199255, 53.290523199606376 ], [ 6.27442203774425, 53.296555476033504 ], [ 6.274345484869558, 53.298896471459123 ], [ 6.279295903485948, 53.303280726668667 ], [ 6.289605022619246, 53.30504955097846 ], [ 6.294402335484916, 53.308106699447009 ], [ 6.280456955266483, 53.312550991208397 ], [ 6.286869494801398, 53.340992699213714 ], [ 6.178839149728187, 53.364485547123003 ], [ 6.168288696177927, 53.390282988240436 ], [ 6.191189525645351, 53.41099583404889 ], [ 6.350263880501254, 53.44609027401485 ], [ 6.413325100034752, 53.515489441922021 ], [ 6.345925968044785, 53.60887727549045 ], [ 5.258985605518784, 53.520422152695446 ], [ 4.64824631088188, 53.248504002365834 ], [ 5.051888721137189, 53.143078793861676 ], [ 5.363948677214953, 52.677838079971743 ], [ 5.566370268509485, 52.644827849821198 ], [ 5.655744875567953, 52.60822779839777 ], [ 5.769612520073487, 52.581936978931942 ], [ 5.810422385639283, 52.579977022841874 ], [ 5.777156143378812, 52.607484963374603 ] ] ] } },
{ "type": "Feature", "properties": { "name": "NL03" }, "geometry": { "type": "Polygon", "coordinates": [ [ [ 6.362524506536314, 53.033912891979803 ], [ 6.42753790684231, 52.971793040494568 ], [ 6.393396049996315, 52.932780653156492 ], [ 6.333455283001856, 52.906395213879797 ], [ 6.303009168821228, 52.924957580700664 ], [ 6.256632852266288, 52.927626942186897 ], [ 6.24752786871536, 52.923578486109022 ], [ 6.244935369103297, 52.919670896320653 ], [ 6.232344035561224, 52.913493618064813 ], [ 6.206928366027044, 52.890709261454944 ], [ 6.165051564180415, 52.87456741424176 ], [ 6.11983847285594, 52.85422334337958 ], [ 6.171965382656269, 52.815338431657921 ], [ 6.193020710898168, 52.833922397095307 ], [ 6.245966144362016, 52.840401644731614 ], [ 6.272142516653433, 52.8375411197635 ], [ 6.274646963237562, 52.817636969484276 ], [ 6.305193828332586, 52.813547356568399 ], [ 6.291106844792764, 52.783569029970359 ], [ 6.29864390929383, 52.770013931183946 ], [ 6.331463320976863, 52.774954786993469 ], [ 6.396766439098371, 52.796342132245336 ], [ 6.45811290744147, 52.802931452366465 ], [ 6.490762390678628, 52.770807832523985 ], [ 6.567274406558898, 52.766351215646878 ], [ 6.588077654707404, 52.780955481465966 ], [ 6.696111257575406, 52.789911388636767 ], [ 6.709959159677825, 52.77485594302491 ], [ 6.653627234084041, 52.763345149624179 ], [ 6.647846732795255, 52.716507349317638 ], [ 6.592194508343266, 52.696959413639824 ], [ 6.587540273744863, 52.664481707589616 ], [ 6.659677604804342, 52.614822194591845 ], [ 6.656483708654096, 52.60081344495331 ], [ 6.767333626001131, 52.563277883292855 ], [ 7.247860017345747, 52.594298692825809 ], [ 7.292627245684467, 53.320297420389124 ], [ 6.974712554914047, 53.215755874453485 ], [ 6.952685098483991, 53.226996814653461 ], [ 6.819781295122076, 53.230628809921008 ], [ 6.747134627900079, 53.233349942886719 ], [ 6.63905652126045, 53.188955949593016 ], [ 6.695046653725699, 53.121116369161655 ], [ 6.634747550852385, 53.106141990748547 ], [ 6.558434231929874, 53.097482284247036 ], [ 6.53024323222316, 53.122711508045711 ], [ 6.445230921200051, 53.108372381340189 ], [ 6.362524506536314, 53.033912891979803 ] ] ] } },
{ "type": "Feature", "properties": { "name": "NL04" }, "geometry": { "type": "Polygon", "coordinates": [ [ [ 6.416401798116523, 52.242031746860008 ], [ 6.251570557021355, 52.22722285500484 ], [ 6.182033294244189, 52.234004858692636 ], [ 6.121150464827341, 52.233371926373806 ], [ 6.065098387569305, 52.260791031382745 ], [ 6.075616394443622, 52.370611339167937 ], [ 6.123017544802471, 52.381056206512753 ], [ 6.134797712301901, 52.413488032056527 ], [ 6.100018170132246, 52.469396143409909 ], [ 6.033806279773152, 52.509944997074783 ], [ 5.929860904626463, 52.47553008052391 ], [ 5.860347857115204, 52.525830588734557 ], [ 5.85473825402211, 52.551078815247543 ], [ 5.810422385639283, 52.579977022841874 ], [ 5.777156143378812, 52.607484963374603 ], [ 5.886166977286056, 52.621040360014412 ], [ 5.837989938524318, 52.676126012202921 ], [ 5.818621972969145, 52.787621379354199 ], [ 5.795155249555565, 52.806477976357705 ], [ 5.819682621944138, 52.817174174333978 ], [ 5.843504929249705, 52.805279810209854 ], [ 5.855992424620825, 52.806457200290936 ], [ 5.87859889638939, 52.80084114872232 ], [ 5.924360523347872, 52.823660524731594 ], [ 5.922888544132081, 52.829597640512809 ], [ 5.972160186185784, 52.842359794415707 ], [ 5.986482491730571, 52.821693418341383 ], [ 5.988902222098797, 52.822064534141809 ], [ 5.99654820456937, 52.816575485714353 ], [ 6.01105152373436, 52.820735424505862 ], [ 6.024560306537124, 52.822549854262306 ], [ 6.031163313833312, 52.81500139113767 ], [ 6.05993976619559, 52.826137948397069 ], [ 6.055106915930971, 52.831065537826873 ], [ 6.052621403402813, 52.83732794744094 ], [ 6.085576104608448, 52.841869021683657 ], [ 6.11983847285594, 52.85422334337958 ], [ 6.171965382656269, 52.815338431657921 ], [ 6.193020710898168, 52.833922397095307 ], [ 6.245966144362016, 52.840401644731614 ], [ 6.272142516653433, 52.8375411197635 ], [ 6.274646963237562, 52.817636969484276 ], [ 6.305193828332586, 52.813547356568399 ], [ 6.291106844792764, 52.783569029970359 ], [ 6.29864390929383, 52.770013931183946 ], [ 6.331463320976863, 52.774954786993469 ], [ 6.396766439098371, 52.796342132245336 ], [ 6.45811290744147, 52.802931452366465 ], [ 6.490762390678628, 52.770807832523985 ], [ 6.567274406558898, 52.766351215646878 ], [ 6.588077654707404, 52.780955481465966 ], [ 6.696111257575406, 52.789911388636767 ], [ 6.709959159677825, 52.77485594302491 ], [ 6.653627234084041, 52.763345149624179 ], [ 6.647846732795255, 52.716507349317638 ], [ 6.592194508343266, 52.696959413639824 ], [ 6.587540273744863, 52.664481707589616 ], [ 6.659677604804342, 52.614822194591845 ], [ 6.656483708654096, 52.60081344495331 ], [ 6.767333626001131, 52.563277883292855 ], [ 6.696683902531001, 52.534397186300041 ], [ 6.569503130879503, 52.484590004485703 ], [ 6.463111773353972, 52.473718814425766 ], [ 6.44341217263089, 52.456182337745226 ], [ 6.504165041867205, 52.409895380436488 ], [ 6.510741736019942, 52.352294680865427 ], [ 6.488973393127716, 52.342986357958274 ], [ 6.539811487969198, 52.322217251867222 ], [ 6.556602287501297, 52.284274173085514 ], [ 6.476947684596002, 52.272669542774047 ], [ 6.416401798116523, 52.242031746860008 ] ] ] } },
{ "type": "Feature", "properties": { "name": "NL05" }, "geometry": { "type": "Polygon", "coordinates": [ [ [ 5.174332603605332, 52.116456386300932 ], [ 5.212884161737714, 52.165909709362005 ], [ 5.164516216431584, 52.166912552875274 ], [ 5.120397038146468, 52.180573069129899 ], [ 5.19244363032958, 52.177914179195461 ], [ 5.216292386619756, 52.206131210025539 ], [ 5.223130141919737, 52.22523909366592 ], [ 5.265810343448527, 52.281147751571034 ], [ 5.306040933189653, 52.277325759873385 ], [ 5.335026948158415, 52.288637899160399 ], [ 5.286050578038783, 52.314919823577199 ], [ 5.149116646755619, 52.318127595201929 ], [ 5.062658360728104, 52.381319047783208 ], [ 5.566370268509485, 52.644827849821198 ], [ 5.655744875567953, 52.60822779839777 ], [ 5.769612520073487, 52.581936978931942 ], [ 5.810422385639283, 52.579977022841874 ], [ 5.85473825402211, 52.551078815247543 ], [ 5.860347857115204, 52.525830588734557 ], [ 5.929860904626463, 52.47553008052391 ], [ 6.033806279773152, 52.509944997074783 ], [ 6.100018170132246, 52.469396143409909 ], [ 6.134797712301901, 52.413488032056527 ], [ 6.123017544802471, 52.381056206512753 ], [ 6.075616394443622, 52.370611339167937 ], [ 6.065098387569305, 52.260791031382745 ], [ 6.121150464827341, 52.233371926373806 ], [ 6.182033294244189, 52.234004858692636 ], [ 6.191386404678505, 52.211374763352183 ], [ 6.159457388431071, 52.19980284752382 ], [ 6.167521413303971, 52.165395558065995 ], [ 6.144518788695605, 52.157181839399257 ], [ 6.176477022406738, 52.118234100647918 ], [ 6.212222932840289, 52.111057821246845 ], [ 6.213712345775019, 52.093604793310355 ], [ 6.178481045682624, 52.090083127131543 ], [ 6.062481858572615, 52.019632083284272 ], [ 5.861420574048108, 52.044554059534278 ], [ 5.834382000945931, 52.11946726956274 ], [ 5.87150275384892, 52.127064213764882 ], [ 5.863253697648255, 52.154908597366671 ], [ 5.659005505367865, 52.131552340777951 ], [ 5.564450283103056, 52.119684237489054 ], [ 5.509245243316437, 52.078220092629309 ], [ 5.496781391603932, 52.05690868458138 ], [ 5.444612078527893, 52.056046370139832 ], [ 5.433154366620738, 52.074541761106261 ], [ 5.345748066296447, 52.086619197583744 ], [ 5.30451222957137, 52.095867920641638 ], [ 5.306335350727253, 52.115248671868621 ], [ 5.243838548966598, 52.136171431441802 ], [ 5.238585481062998, 52.113595863257736 ], [ 5.190257256953743, 52.112563563636982 ], [ 5.174332603605332, 52.116456386300932 ] ] ] } },
{ "type": "Feature", "properties": { "name": "NL06" }, "geometry": { "type": "Polygon", "coordinates": [ [ [ 5.030038354560415, 52.614536782679529 ], [ 4.960915689626501, 52.605344429281345 ], [ 4.912034184154895, 52.606899918472301 ], [ 4.898168528207398, 52.600870621967964 ], [ 4.888604865746793, 52.592528726848506 ], [ 4.885163270936922, 52.584446629771968 ], [ 4.864182779557797, 52.571918444560474 ], [ 4.857143172746634, 52.559098421869365 ], [ 4.780851031479253, 52.557519032417808 ], [ 4.777164367205787, 52.534037656762045 ], [ 4.781898301641583, 52.519784991464462 ], [ 4.752698499587496, 52.51052125811615 ], [ 4.677892852459137, 52.453389409565531 ], [ 4.712851137405162, 52.435928660103485 ], [ 4.768534622260118, 52.427096350208423 ], [ 4.776242438583794, 52.410920948293338 ], [ 4.772132912000655, 52.360632167575439 ], [ 4.734862265623335, 52.334513790491563 ], [ 4.732159761434124, 52.293769661606866 ], [ 4.782308326218354, 52.26313613153053 ], [ 4.724331562442567, 52.23234569647903 ], [ 4.675790826444962, 52.234157407013583 ], [ 4.632253209729652, 52.216031650156836 ], [ 4.602019349702153, 52.214861568280291 ], [ 4.583464270439044, 52.218048995396316 ], [ 4.572134619512536, 52.216997285612145 ], [ 4.555655127255794, 52.218680009313154 ], [ 4.551878576946959, 52.226251477045558 ], [ 4.562864905118118, 52.233611388620027 ], [ 4.568014746448349, 52.268711882899183 ], [ 4.588614111769275, 52.279215610947773 ], [ 4.61196005913299, 52.31260092510756 ], [ 4.562178259607421, 52.309452442195159 ], [ 4.462271337800933, 52.336522077371257 ], [ 4.64824631088188, 53.248504002365834 ], [ 5.051888721137189, 53.143078793861676 ], [ 5.363948677214953, 52.677838079971743 ], [ 5.067577021995021, 52.580323340460758 ], [ 5.030038354560415, 52.614536782679529 ] ] ] } },
{ "type": "Feature", "properties": { "name": "NL07" }, "geometry": { "type": "Polygon", "coordinates": [ [ [ 5.155714219129481, 52.462904719824841 ], [ 5.030038354560415, 52.614536782679529 ], [ 4.960915689626501, 52.605344429281345 ], [ 4.912034184154895, 52.606899918472301 ], [ 4.898168528207398, 52.600870621967964 ], [ 4.888604865746793, 52.592528726848506 ], [ 4.885163270936922, 52.584446629771968 ], [ 4.864182779557797, 52.571918444560474 ], [ 4.857143172746634, 52.559098421869365 ], [ 4.780851031479253, 52.557519032417808 ], [ 4.777164367205787, 52.534037656762045 ], [ 4.781898301641583, 52.519784991464462 ], [ 4.752698499587496, 52.51052125811615 ], [ 4.677892852459137, 52.453389409565531 ], [ 4.712851137405162, 52.435928660103485 ], [ 4.768534622260118, 52.427096350208423 ], [ 4.776242438583794, 52.410920948293338 ], [ 4.772132912000655, 52.360632167575439 ], [ 4.734862265623335, 52.334513790491563 ], [ 4.732159761434124, 52.293769661606866 ], [ 4.782308326218354, 52.26313613153053 ], [ 4.724331562442567, 52.23234569647903 ], [ 4.724142383182351, 52.213002714883707 ], [ 4.734627345515972, 52.206526273860071 ], [ 4.783794812487523, 52.22873831573596 ], [ 4.814176734047082, 52.19954469195396 ], [ 4.843261713991542, 52.180920537380857 ], [ 4.851731325480635, 52.16627792877054 ], [ 4.832434178548505, 52.1447316202282 ], [ 4.812525051266917, 52.139960370414983 ], [ 4.833966133901648, 52.113644967936118 ], [ 4.862187984730978, 52.096510767344348 ], [ 4.938558728749448, 52.10605028362405 ], [ 4.944476658236862, 52.096148448826447 ], [ 4.916393056279198, 52.075221155731739 ], [ 4.850037446710131, 52.047172247931677 ], [ 4.847220292272142, 52.01838526153189 ], [ 4.857444050026673, 52.005621795221245 ], [ 4.818638780863804, 51.999763233626069 ], [ 4.846854230502891, 51.975126220914952 ], [ 4.877363092256305, 51.937829431753777 ], [ 4.916368858084379, 51.943547021032224 ], [ 4.936715348719945, 51.964000766552822 ], [ 4.969403154544242, 51.959684672534344 ], [ 4.999089019017329, 51.978384745356188 ], [ 5.028774882936846, 51.968521942972643 ], [ 5.040282324783155, 51.9781792922929 ], [ 5.065965600787959, 51.993893718517526 ], [ 5.09698566141714, 52.003134923153809 ], [ 5.115831182121964, 52.000978812700573 ], [ 5.150520282180401, 51.972734447022582 ], [ 5.180027917664135, 51.967249311569596 ], [ 5.264828638235276, 51.976132489383147 ], [ 5.199940637474363, 52.044811841496255 ], [ 5.154746517925404, 52.056137891656988 ], [ 5.164473612836837, 52.074709008283762 ], [ 5.204755724367681, 52.079259093004019 ], [ 5.190257256953743, 52.112563563636982 ], [ 5.174332603605332, 52.116456386300932 ], [ 5.212884161737714, 52.165909709362005 ], [ 5.164516216431584, 52.166912552875274 ], [ 5.120397038146468, 52.180573069129899 ], [ 5.19244363032958, 52.177914179195461 ], [ 5.216292386619756, 52.206131210025539 ], [ 5.223130141919737, 52.22523909366592 ], [ 5.265810343448527, 52.281147751571034 ], [ 5.306040933189653, 52.277325759873385 ], [ 5.335026948158415, 52.288637899160399 ], [ 5.286050578038783, 52.314919823577199 ], [ 5.149116646755619, 52.318127595201929 ], [ 5.062658360728104, 52.381319047783208 ], [ 5.155714219129481, 52.462904719824841 ] ] ] } },
{ "type": "Feature", "properties": { "name": "NL08" }, "geometry": { "type": "Polygon", "coordinates": [ [ [ 6.696683902531001, 52.534397186300041 ], [ 6.569503130879503, 52.484590004485703 ], [ 6.463111773353972, 52.473718814425766 ], [ 6.44341217263089, 52.456182337745226 ], [ 6.504165041867205, 52.409895380436488 ], [ 6.510741736019942, 52.352294680865427 ], [ 6.488973393127716, 52.342986357958274 ], [ 6.539811487969198, 52.322217251867222 ], [ 6.556602287501297, 52.284274173085514 ], [ 6.476947684596002, 52.272669542774047 ], [ 6.416401798116523, 52.242031746860008 ], [ 6.49511811668054, 52.177676061771059 ], [ 6.593997961401704, 52.186034053939999 ], [ 6.643125236992328, 52.146367919460829 ], [ 6.601915765735381, 52.121384734496857 ], [ 6.598668800965482, 52.062829503075442 ], [ 6.714784450956485, 52.046673673210677 ], [ 7.148902137359702, 52.237020570870101 ], [ 7.07177653514789, 52.48486346926294 ], [ 6.696683902531001, 52.534397186300041 ] ] ] } },
{ "type": "Feature", "properties": { "name": "NL09" }, "geometry": { "type": "Polygon", "coordinates": [ [ [ 4.877363092256305, 51.937829431753777 ], [ 4.841320324304105, 51.940873983273327 ], [ 4.808632518479808, 51.923186797900335 ], [ 4.744213589539916, 51.910177408549927 ], [ 4.74398354257039, 51.926491148270962 ], [ 4.633786709801217, 51.96946268611606 ], [ 4.500933415219176, 52.004034478659229 ], [ 4.462647802174043, 51.968373441720324 ], [ 4.39430793551137, 51.962173624915991 ], [ 4.265316945093787, 52.020772349571125 ], [ 4.200245547870269, 52.074246565295873 ], [ 3.78233010880544, 52.074936137056788 ], [ 4.462271337800933, 52.336522077371257 ], [ 4.562178259607421, 52.309452442195159 ], [ 4.61196005913299, 52.31260092510756 ], [ 4.588614111769275, 52.279215610947773 ], [ 4.568014746448349, 52.268711882899183 ], [ 4.562864905118118, 52.233611388620027 ], [ 4.551878576946959, 52.226251477045558 ], [ 4.555655127255794, 52.218680009313154 ], [ 4.572134619512536, 52.216997285612145 ], [ 4.583464270439044, 52.218048995396316 ], [ 4.602019349702153, 52.214861568280291 ], [ 4.632253209729652, 52.216031650156836 ], [ 4.675790826444962, 52.234157407013583 ], [ 4.724331562442567, 52.23234569647903 ], [ 4.724142383182351, 52.213002714883707 ], [ 4.734627345515972, 52.206526273860071 ], [ 4.783794812487523, 52.22873831573596 ], [ 4.814176734047082, 52.19954469195396 ], [ 4.843261713991542, 52.180920537380857 ], [ 4.851731325480635, 52.16627792877054 ], [ 4.832434178548505, 52.1447316202282 ], [ 4.812525051266917, 52.139960370414983 ], [ 4.833966133901648, 52.113644967936118 ], [ 4.862187984730978, 52.096510767344348 ], [ 4.938558728749448, 52.10605028362405 ], [ 4.944476658236862, 52.096148448826447 ], [ 4.916393056279198, 52.075221155731739 ], [ 4.850037446710131, 52.047172247931677 ], [ 4.847220292272142, 52.01838526153189 ], [ 4.857444050026673, 52.005621795221245 ], [ 4.818638780863804, 51.999763233626069 ], [ 4.846854230502891, 51.975126220914952 ], [ 4.877363092256305, 51.937829431753777 ] ] ] } },
{ "type": "Feature", "properties": { "name": "NL10" }, "geometry": { "type": "Polygon", "coordinates": [ [ [ 3.78233010880544, 52.074936137056788 ], [ 4.200245547870269, 52.074246565295873 ], [ 4.265316945093787, 52.020772349571125 ], [ 4.39430793551137, 51.962173624915991 ], [ 4.322261343082307, 51.94428922944487 ], [ 4.227644658449537, 51.895095269130749 ], [ 4.027154904874723, 51.901101412678678 ], [ 3.78233010880544, 52.074936137056788 ] ] ] } },
{ "type": "Feature", "properties": { "name": "NL11" }, "geometry": { "type": "Polygon", "coordinates": [ [ [ 3.646634253818326, 51.854999354240235 ], [ 3.862875131602926, 51.779714027732886 ], [ 3.989217905571268, 51.796703562575267 ], [ 4.043671250063543, 51.698148036439584 ], [ 4.154075981980301, 51.683674261461611 ], [ 4.241799379243467, 51.64746957338415 ], [ 4.369215112150421, 51.668161509249295 ], [ 4.399234778236953, 51.696428166750593 ], [ 4.422710293376475, 51.707662184635282 ], [ 4.506360387896028, 51.693112677910172 ], [ 4.693484416672055, 51.731770303698916 ], [ 4.777133541458407, 51.794432751688227 ], [ 4.843614294707446, 51.799323820030125 ], [ 4.918727783309289, 51.827067835674981 ], [ 5.001053145582911, 51.820939061931973 ], [ 5.108428043907768, 51.822797469124055 ], [ 5.12816910234032, 51.905270108935831 ], [ 5.180027917664135, 51.967249311569596 ], [ 5.150520282180401, 51.972734447022582 ], [ 5.115831182121964, 52.000978812700573 ], [ 5.09698566141714, 52.003134923153809 ], [ 5.065965600787959, 51.993893718517526 ], [ 5.040282324783155, 51.9781792922929 ], [ 5.028774882936846, 51.968521942972643 ], [ 4.999089019017329, 51.978384745356188 ], [ 4.969403154544242, 51.959684672534344 ], [ 4.936715348719945, 51.964000766552822 ], [ 4.916368858084379, 51.943547021032224 ], [ 4.877363092256305, 51.937829431753777 ], [ 4.841320324304105, 51.940873983273327 ], [ 4.808632518479808, 51.923186797900335 ], [ 4.744213589539916, 51.910177408549927 ], [ 4.74398354257039, 51.926491148270962 ], [ 4.633786709801217, 51.96946268611606 ], [ 4.500933415219176, 52.004034478659229 ], [ 4.462647802174043, 51.968373441720324 ], [ 4.39430793551137, 51.962173624915991 ], [ 4.322261343082307, 51.94428922944487 ], [ 4.227644658449537, 51.895095269130749 ], [ 4.027154904874723, 51.901101412678678 ], [ 3.646634253818326, 51.854999354240235 ] ] ] } },
{ "type": "Feature", "properties": { "name": "NL12" }, "geometry": { "type": "Polygon", "coordinates": [ [ [ 5.351104873514406, 51.617540216049036 ], [ 5.468844958478427, 51.702148741257922 ], [ 5.549168373312272, 51.648649304061429 ], [ 5.594982469180464, 51.650372109341575 ], [ 5.575842448158178, 51.564831326131092 ], [ 5.759610503681415, 51.594344531146291 ], [ 5.739489329936061, 51.662170848266832 ], [ 5.800421226264948, 51.755296433420433 ], [ 5.864888582715515, 51.757442414780968 ], [ 5.868203129155535, 51.775929968927102 ], [ 5.89323626244212, 51.777584099661787 ], [ 5.928850292646175, 51.746079633587691 ], [ 5.96399795949819, 51.745734210107074 ], [ 6.224508079507305, 51.753679708675449 ], [ 6.955070088037051, 51.947802820749857 ], [ 6.714784450956485, 52.046673673210677 ], [ 6.598668800965482, 52.062829503075442 ], [ 6.601915765735381, 52.121384734496857 ], [ 6.643125236992328, 52.146367919460829 ], [ 6.593997961401704, 52.186034053939999 ], [ 6.49511811668054, 52.177676061771059 ], [ 6.416401798116523, 52.242031746860008 ], [ 6.251570557021355, 52.22722285500484 ], [ 6.182033294244189, 52.234004858692636 ], [ 6.191386404678505, 52.211374763352183 ], [ 6.159457388431071, 52.19980284752382 ], [ 6.167521413303971, 52.165395558065995 ], [ 6.144518788695605, 52.157181839399257 ], [ 6.176477022406738, 52.118234100647918 ], [ 6.212222932840289, 52.111057821246845 ], [ 6.213712345775019, 52.093604793310355 ], [ 6.178481045682624, 52.090083127131543 ], [ 6.062481858572615, 52.019632083284272 ], [ 5.861420574048108, 52.044554059534278 ], [ 5.834382000945931, 52.11946726956274 ], [ 5.87150275384892, 52.127064213764882 ], [ 5.863253697648255, 52.154908597366671 ], [ 5.659005505367865, 52.131552340777951 ], [ 5.564450283103056, 52.119684237489054 ], [ 5.509245243316437, 52.078220092629309 ], [ 5.496781391603932, 52.05690868458138 ], [ 5.444612078527893, 52.056046370139832 ], [ 5.433154366620738, 52.074541761106261 ], [ 5.345748066296447, 52.086619197583744 ], [ 5.30451222957137, 52.095867920641638 ], [ 5.306335350727253, 52.115248671868621 ], [ 5.243838548966598, 52.136171431441802 ], [ 5.238585481062998, 52.113595863257736 ], [ 5.190257256953743, 52.112563563636982 ], [ 5.204755724367681, 52.079259093004019 ], [ 5.164473612836837, 52.074709008283762 ], [ 5.154746517925404, 52.056137891656988 ], [ 5.199940637474363, 52.044811841496255 ], [ 5.264828638235276, 51.976132489383147 ], [ 5.180027917664135, 51.967249311569596 ], [ 5.12816910234032, 51.905270108935831 ], [ 5.108428043907768, 51.822797469124055 ], [ 5.001053145582911, 51.820939061931973 ], [ 5.010241073602595, 51.816749293786337 ], [ 5.012645121713659, 51.810333853866652 ], [ 5.051062725152065, 51.796348030650599 ], [ 5.068296443158771, 51.779968167498787 ], [ 5.083293130786259, 51.781074978623707 ], [ 5.101764974703144, 51.78690635823996 ], [ 5.121510403259258, 51.77683226385345 ], [ 5.136119744269248, 51.773535002214885 ], [ 5.139639773253136, 51.769612895428182 ], [ 5.135735845503228, 51.759562336448042 ], [ 5.142667805823645, 51.755049620844353 ], [ 5.125381958697123, 51.744236264912161 ], [ 5.127078064782607, 51.737688905126483 ], [ 5.138418039798241, 51.739345902724565 ], [ 5.165941125930425, 51.688970703621152 ], [ 5.28640000082173, 51.607993320318776 ], [ 5.351104873514406, 51.617540216049036 ] ] ] } },
{ "type": "Feature", "properties": { "name": "NL13" }, "geometry": { "type": "Polygon", "coordinates": [ [ [ 4.49481556154812, 51.311114488427549 ], [ 5.046596285309737, 51.413530723149307 ], [ 5.097542425985389, 51.429449465316694 ], [ 5.186436901797054, 51.432079301073301 ], [ 5.254488991291925, 51.547821444225129 ], [ 5.400971135306655, 51.548098317436114 ], [ 5.400971135306655, 51.548375188962211 ], [ 5.400525900826366, 51.600673658947713 ], [ 5.351104873514406, 51.617540216049036 ], [ 5.28640000082173, 51.607993320318776 ], [ 5.165941125930425, 51.688970703621152 ], [ 5.138418039798241, 51.739345902724565 ], [ 5.127078064782607, 51.737688905126483 ], [ 5.125381958697123, 51.744236264912161 ], [ 5.142667805823645, 51.755049620844353 ], [ 5.135735845503228, 51.759562336448042 ], [ 5.139639773253136, 51.769612895428182 ], [ 5.136119744269248, 51.773535002214885 ], [ 5.121510403259258, 51.77683226385345 ], [ 5.101764974703144, 51.78690635823996 ], [ 5.083293130786259, 51.781074978623707 ], [ 5.068296443158771, 51.779968167498787 ], [ 5.051062725152065, 51.796348030650599 ], [ 5.012645121713659, 51.810333853866652 ], [ 5.010241073602595, 51.816749293786337 ], [ 5.001053145582911, 51.820939061931973 ], [ 4.918727783309289, 51.827067835674981 ], [ 4.843614294707446, 51.799323820030125 ], [ 4.777133541458407, 51.794432751688227 ], [ 4.693484416672055, 51.731770303698916 ], [ 4.696761540752397, 51.637970917219434 ], [ 4.555100992291898, 51.624517256412723 ], [ 4.558266773571198, 51.5882533706949 ], [ 4.582186531397944, 51.540190952496452 ], [ 4.487125629620644, 51.476671233531917 ], [ 4.49481556154812, 51.311114488427549 ] ] ] } },
{ "type": "Feature", "properties": { "name": "NL14" }, "geometry": { "type": "Polygon", "coordinates": [ [ [ 4.693484416672055, 51.731770303698916 ], [ 4.696761540752397, 51.637970917219434 ], [ 4.555100992291898, 51.624517256412723 ], [ 4.558266773571198, 51.5882533706949 ], [ 4.582186531397944, 51.540190952496452 ], [ 4.487125629620644, 51.476671233531917 ], [ 4.49481556154812, 51.311114488427549 ], [ 3.856296083720754, 51.15777836600224 ], [ 3.173397552038559, 51.244108641164736 ], [ 3.646634253818326, 51.854999354240235 ], [ 3.862875131602926, 51.779714027732886 ], [ 3.989217905571268, 51.796703562575267 ], [ 4.043671250063543, 51.698148036439584 ], [ 4.154075981980301, 51.683674261461611 ], [ 4.241799379243467, 51.64746957338415 ], [ 4.369215112150421, 51.668161509249295 ], [ 4.399234778236953, 51.696428166750593 ], [ 4.422710293376475, 51.707662184635282 ], [ 4.506360387896028, 51.693112677910172 ], [ 4.693484416672055, 51.731770303698916 ] ] ] } },
{ "type": "Feature", "properties": { "name": "NL16" }, "geometry": { "type": "Polygon", "coordinates": [ [ [ 5.046596285309737, 51.413530723149307 ], [ 5.097542425985389, 51.429449465316694 ], [ 5.186436901797054, 51.432079301073301 ], [ 5.254488991291925, 51.547821444225129 ], [ 5.400971135306655, 51.548098317436114 ], [ 5.400971135306655, 51.548375188962211 ], [ 5.400525900826366, 51.600673658947713 ], [ 5.351104873514406, 51.617540216049036 ], [ 5.468844958478427, 51.702148741257922 ], [ 5.549168373312272, 51.648649304061429 ], [ 5.594982469180464, 51.650372109341575 ], [ 5.575842448158178, 51.564831326131092 ], [ 5.759610503681415, 51.594344531146291 ], [ 5.739489329936061, 51.662170848266832 ], [ 5.800421226264948, 51.755296433420433 ], [ 5.864888582715515, 51.757442414780968 ], [ 5.868203129155535, 51.775929968927102 ], [ 5.89323626244212, 51.777584099661787 ], [ 5.928850292646175, 51.746079633587691 ], [ 5.96399795949819, 51.745734210107074 ], [ 6.224508079507305, 51.753679708675449 ], [ 6.625797180721057, 50.833455941518118 ], [ 5.510821205683182, 50.645329113094427 ], [ 5.046596285309737, 51.413530723149307 ] ] ] } }
]
}
